NORAD_CAT_ID,OBJECT_NAME,OBJECT_TYPE,EPOCH,MEAN_MOTION,ECCENTRICITY,INCLINATION,RA_OF_ASC_NODE,ARG_OF_PERICENTER,MEAN_ANOMALY,BSTAR,MEAN_MOTION_DOT,MEAN_MOTION_DDOT,TLE_LINE0,TLE_LINE1,TLE_LINE2,SEMIMAJOR_AXIS,PERIOD,APOGEE,PERIGEE,DECAYED
52133.0,STARLINK-3707,PAYLOAD,2024-02-29 23:00:12,15.08880938,0.0001205,53.2181,145.4088,67.6632,292.4488,-0.00056372,-9.258e-05,0.0,0 STARLINK-3707,1 52133U 22029AX  24060.95847276 -.00009258  00000-0 -56372-3 0  9991,2 52133  53.2181 145.4088 0001205  67.6632 292.4488 15.08880938109416,6917.755,95.435,540.454,538.787,0.0
52133.0,STARLINK-3707,PAYLOAD,2024-03-01 11:43:18,15.08844067,0.0001388,53.2178,143.0301,113.4303,246.6836,7.6906e-06,-1.66e-06,0.0,0 STARLINK-3707,1 52133U 22029AX  24061.48840975 -.00000166  00000-0  76906-5 0  9994,2 52133  53.2178 143.0301 0001388 113.4303 246.6836 15.08844067109490,6917.868,95.437,540.693,538.773,0.0
52133.0,STARLINK-3707,PAYLOAD,2024-03-02 11:34:04,15.08849643,0.0001407,53.2169,138.5691,99.7041,260.411,0.00010557,1.393e-05,0.0,0 STARLINK-3707,1 52133U 22029AX  24062.48200126  .00001393  00000-0  10557-3 0  9993,2 52133  53.2169 138.5691 0001407  99.7041 260.4110 15.08849643109649,6917.851,95.437,540.689,538.743,0.0
52133.0,STARLINK-3707,PAYLOAD,2024-03-03 11:24:52,15.08838398,0.0001537,53.2167,134.1113,86.4468,273.67,5.2074e-05,5.41e-06,0.0,0 STARLINK-3707,1 52133U 22029AX  24063.47560976  .00000541  00000-0  52074-4 0  9990,2 52133  53.2167 134.1113 0001537  86.4468 273.6700 15.08838398109790,6917.885,95.438,540.814,538.687,0.0
52133.0,STARLINK-3707,PAYLOAD,2024-03-04 11:15:38,15.08857419,0.0001633,53.2168,129.6559,86.9559,273.1619,0.00012816,1.753e-05,0.0,0 STARLINK-3707,1 52133U 22029AX  24064.46919832  .00001753  00000-0  12816-3 0  9994,2 52133  53.2168 129.6559 0001633  86.9559 273.1619 15.08857419109943,6917.827,95.436,540.822,538.562,0.0
52133.0,STARLINK-3707,PAYLOAD,2024-03-04 20:47:58,15.08831889,0.0002002,53.2163,127.8672,95.2691,264.8529,-6.1655e-05,-1.269e-05,0.0,0 STARLINK-3707,1 52133U 22029AX  24064.86665147 -.00001269  00000-0 -61655-4 0  9995,2 52133  53.2163 127.8672 0002002  95.2691 264.8529 15.08831889110004,6917.905,95.438,541.155,538.385,0.0
52133.0,STARLINK-3707,PAYLOAD,2024-03-05 11:06:27,15.08819742,0.000169,53.2175,125.1928,98.5672,261.5511,-0.00020049,-3.476e-05,0.0,0 STARLINK-3707,1 52133U 22029AX  24065.46282145 -.00003476  00000-0 -20049-3 0  9998,2 52133  53.2175 125.1928 0001690  98.5672 261.5511 15.08819742110097,6917.942,95.439,540.976,538.638,0.0
52133.0,STARLINK-3707,PAYLOAD,2024-03-06 04:35:42,15.08837027,0.0001701,53.2174,121.9216,105.0122,255.1058,-2.1291e-05,-6.27e-06,0.0,0 STARLINK-3707,1 52133U 22029AX  24066.19145839 -.00000627  00000-0 -21291-4 0  9993,2 52133  53.2174 121.9216 0001701 105.0122 255.1058 15.08837027110201,6917.889,95.438,540.931,538.578,0.0
52133.0,STARLINK-3707,PAYLOAD,2024-03-06 12:32:38,15.0884763,0.0001583,53.2163,120.4344,103.025,257.0919,0.0010091,0.00015812,0.0,0 STARLINK-3707,1 52133U 22029AX  24066.52266257  .00015812  00000-0  10091-2 0  9992,2 52133  53.2163 120.4344 0001583 103.0250 257.0919 15.08847630110256,6917.857,95.437,540.817,538.627,0.0
52133.0,STARLINK-3707,PAYLOAD,2024-03-07 12:23:24,15.08848985,0.000154,53.2158,115.9728,91.5796,268.5373,0.00036412,5.513e-05,0.0,0 STARLINK-3707,1 52133U 22029AX  24067.51626038  .00005513  00000-0  36412-3 0  9992,2 52133  53.2158 115.9728 0001540  91.5796 268.5373 15.08848985110406,6917.853,95.437,540.783,538.653,0.0
52133.0,STARLINK-3707,PAYLOAD,2024-03-08 02:41:53,15.08841275,0.0001638,53.2156,113.2963,89.0588,271.0592,0.00019177,2.765e-05,0.0,0 STARLINK-3707,1 52133U 22029AX  24068.11242217  .00002765  00000-0  19177-3 0  9997,2 52133  53.2156 113.2963 0001638  89.0588 271.0592 15.08841275110491,6917.876,95.437,540.875,538.608,0.0
52133.0,STARLINK-3707,PAYLOAD,2024-03-08 10:38:47,15.08870607,0.0001485,53.2162,111.8082,87.3065,272.8098,0.00059982,9.279e-05,0.0,0 STARLINK-3707,1 52133U 22029AX  24068.44361008  .00009279  00000-0  59982-3 0  9998,2 52133  53.2162 111.8082 0001485  87.3065 272.8098 15.08870607110542,6917.787,95.436,540.679,538.625,0.0
52133.0,STARLINK-3707,PAYLOAD,2024-03-08 20:11:06,15.088542,0.0001462,53.2174,110.0224,95.4556,264.6603,0.00018489,2.657e-05,0.0,0 STARLINK-3707,1 52133U 22029AX  24068.84105224  .00002657  00000-0  18489-3 0  9998,2 52133  53.2174 110.0224 0001462  95.4556 264.6603 15.08854200110603,6917.837,95.437,540.713,538.691,0.0
52133.0,STARLINK-3707,PAYLOAD,2024-03-09 08:54:12,15.08843813,0.0001582,53.2168,107.6446,93.5789,266.5384,4.1494e-05,3.72e-06,0.0,0 STARLINK-3707,1 52133U 22029AX  24069.37097777  .00000372  00000-0  41494-4 0  9995,2 52133  53.2168 107.6446 0001582  93.5789 266.5384 15.08843813110687,6917.869,95.437,540.828,538.639,0.0
52133.0,STARLINK-3707,PAYLOAD,2024-03-09 12:04:58,15.08844492,0.0001586,53.2169,107.0486,98.5911,261.5261,4.7674e-05,4.71e-06,0.0,0 STARLINK-3707,1 52133U 22029AX  24069.50345661  .00000471  00000-0  47674-4 0  9994,2 52133  53.2169 107.0486 0001586  98.5911 261.5261 15.08844492110708,6917.867,95.437,540.829,538.634,0.0
52133.0,STARLINK-3707,PAYLOAD,2024-03-09 20:01:54,15.08841833,0.0001554,53.2168,105.5618,101.8172,258.2994,8.9629e-05,1.139e-05,0.0,0 STARLINK-3707,1 52133U 22029AX  24069.83465821  .00001139  00000-0  89629-4 0  9999,2 52133  53.2168 105.5618 0001554 101.8172 258.2994 15.08841833110756,6917.875,95.437,540.815,538.665,0.0
52133.0,STARLINK-3707,PAYLOAD,2024-03-10 08:45:00,15.08825518,0.0001334,53.2167,103.1811,97.3525,262.7619,-0.00023795,-4.071e-05,0.0,0 STARLINK-3707,1 52133U 22029AX  24070.36458936 -.00004071  00000-0 -23795-3 0  9999,2 52133  53.2167 103.1811 0001334  97.3525 262.7619 15.08825518110836,6917.925,95.438,540.713,538.867,0.0
52133.0,STARLINK-3707,PAYLOAD,2024-03-11 05:25:01,15.08832439,0.0001575,53.2163,99.3174,94.6142,265.503,0.00015278,2.144e-05,0.0,0 STARLINK-3707,1 52133U 22029AX  24071.22571363  .00002144  00000-0  15278-3 0  9999,2 52133  53.2163  99.3174 0001575  94.6142 265.5030 15.08832439110964,6917.904,95.438,540.858,538.679,0.0
52133.0,STARLINK-3707,PAYLOAD,2024-03-11 08:35:48,15.08835445,0.0001344,53.2151,98.7244,86.9203,273.1943,0.00031579,4.741e-05,0.0,0 STARLINK-3707,1 52133U 22029AX  24071.35819457  .00004741  00000-0  31579-3 0  9999,2 52133  53.2151  98.7244 0001344  86.9203 273.1943 15.08835445110988,6917.894,95.438,540.689,538.83,0.0
52133.0,STARLINK-3707,PAYLOAD,2024-03-11 18:08:06,15.08847649,0.0001567,53.2158,96.9413,86.7794,273.3377,0.00046534,7.127e-05,0.0,0 STARLINK-3707,1 52133U 22029AX  24071.75563179  .00007127  00000-0  46534-3 0  9998,2 52133  53.2158  96.9413 0001567  86.7794 273.3377 15.08847649111043,6917.857,95.437,540.806,538.638,0.0
52133.0,STARLINK-3707,PAYLOAD,2024-03-12 08:26:34,15.08871017,0.0001604,53.2156,94.2645,87.1873,272.9303,0.00083269,0.00013,0.0,0 STARLINK-3707,1 52133U 22029AX  24072.35178382  .00013000  00000-0  83269-3 0  9996,2 52133  53.2156  94.2645 0001604  87.1873 272.9303 15.08871017111134,6917.786,95.436,540.76,538.541,0.0
52133.0,STARLINK-3707,PAYLOAD,2024-03-13 00:20:25,15.08855992,0.0001605,53.2156,91.2901,82.9361,277.1814,0.00030165,4.518e-05,0.0,0 STARLINK-3707,1 52133U 22029AX  24073.01418220  .00004518  00000-0  30165-3 0  9999,2 52133  53.2156  91.2901 0001605  82.9361 277.1814 15.08855992111231,6917.832,95.437,540.807,538.586,0.0
52133.0,STARLINK-3707,PAYLOAD,2024-03-13 08:17:21,15.0884789,0.0001404,53.216,89.8005,65.4433,294.6705,0.00024794,3.661e-05,0.0,0 STARLINK-3707,1 52133U 22029AX  24073.34538317  .00003661  00000-0  24794-3 0  9994,2 52133  53.2160  89.8005 0001404  65.4433 294.6705 15.08847890111283,6917.856,95.437,540.693,538.75,0.0
52133.0,STARLINK-3707,PAYLOAD,2024-03-13 17:49:39,15.08842852,0.0001268,53.215,88.0173,77.6053,282.5081,0.00025351,3.749e-05,0.0,0 STARLINK-3707,1 52133U 22029AX  24073.74282344  .00003749  00000-0  25351-3 0  9991,2 52133  53.2150  88.0173 0001268  77.6053 282.5081 15.08842852111343,6917.872,95.437,540.614,538.859,0.0
52133.0,STARLINK-3707,PAYLOAD,2024-03-14 04:57:21,15.08842405,0.0001343,53.216,85.9363,90.3517,269.7629,0.00017577,2.511e-05,0.0,0 STARLINK-3707,1 52133U 22029AX  24074.20650318  .00002511  00000-0  17577-3 0  9990,2 52133  53.2160  85.9363 0001343  90.3517 269.7629 15.08842405111419,6917.873,95.437,540.667,538.809,0.0
52133.0,STARLINK-3707,PAYLOAD,2024-03-14 06:32:44,15.08845154,0.0001363,53.2155,85.6387,86.6197,273.4951,0.0001159,1.557e-05,0.0,0 STARLINK-3707,1 52133U 22029AX  24074.27274213  .00001557  00000-0  11590-3 0  9991,2 52133  53.2155  85.6387 0001363  86.6197 273.4951 15.08845154111425,6917.865,95.437,540.673,538.787,0.0
52133.0,STARLINK-3707,PAYLOAD,2024-03-14 09:43:30,15.08850306,0.0001472,53.2165,85.0458,94.1566,265.9595,0.00016122,2.279e-05,0.0,0 STARLINK-3707,1 52133U 22029AX  24074.40521973  .00002279  00000-0  16122-3 0  9992,2 52133  53.2165  85.0458 0001472  94.1566 265.9595 15.08850306111441,6917.849,95.437,540.732,538.696,0.0
52133.0,STARLINK-3707,PAYLOAD,2024-03-15 04:48:09,15.08837605,0.0001525,53.2169,81.478,98.6522,261.4643,7.2053e-05,8.59e-06,0.0,0 STARLINK-3707,1 52133U 22029AX  24075.20010593  .00000859  00000-0  72053-4 0  9990,2 52133  53.2169  81.4780 0001525  98.6522 261.4643 15.08837605111568,6917.888,95.438,540.808,538.698,0.0
52133.0,STARLINK-3707,PAYLOAD,2024-03-15 07:58:55,15.08839855,0.0001582,53.2166,80.8811,92.0573,268.06,9.7615e-05,1.266e-05,0.0,0 STARLINK-3707,1 52133U 22029AX  24075.33258542  .00001266  00000-0  97615-4 0  9996,2 52133  53.2166  80.8811 0001582  92.0573 268.0600 15.08839855111587,6917.881,95.438,540.84,538.651,0.0
52133.0,STARLINK-3707,PAYLOAD,2024-03-16 09:25:05,15.08843117,0.0001818,53.2184,76.1181,79.8395,280.2802,9.7219e-05,1.26e-05,0.0,0 STARLINK-3707,1 52133U 22029AX  24076.39242624  .00001260  00000-0  97219-4 0  9991,2 52133  53.2184  76.1181 0001818  79.8395 280.2802 15.08843117111746,6917.871,95.437,540.994,538.478,0.0
